STARLINK-33560          
1 62282U 24237R   25162.80461231  .00015956  00000+0  58806-3 0  9994
2 62282  43.0056 306.1747 0002626 290.8131  69.2439 15.27580221 29678
STARLINK-33547          
1 62283U 24237S   25162.78801664 -.00113213  00000+0 -27940-2 0  9991
2 62283  43.0029 295.6693 0001185  84.2457 275.8535 15.40148820 29881
STARLINK-33563          
1 62284U 24237T   25162.41872883  .00019589  00000+0  71929-3 0  9999
2 62284  43.0011 308.4342 0001769 278.5043  81.5608 15.27588504 29700
STARLINK-33550          
1 62285U 24237U   25162.73536709  .00016820  00000+0  61917-3 0  9990
2 62285  43.0019 306.5083 0001245 255.2962 104.7752 15.27589134 29754
STARLINK-33564          
1 62286U 24237V   25162.74949769  .00013859  00000+0  51190-3 0  9997
2 62286  43.0010 306.6209 0001354 277.0560  83.0138 15.27600228 29759
STARLINK-33546          
1 62287U 24237W   25162.48024608  .00015668  00000+0  57761-3 0  9995
2 62287  42.9997 308.0317 0001440 244.0293 116.0411 15.27584353 29606
STARLINK-33565          
1 62288U 24237X   25162.72981447  .00052379  00000+0  12523-2 0  9992
2 62288  43.0017 296.0893 0001665 274.3663  85.7003 15.40706425 29872
STARLINK-33549          
1 62289U 24237Y   25162.75335625  .00013699  00000+0  50636-3 0  9997
2 62289  43.0017 306.6513 0001276 265.7400  94.3306 15.27584258 29753
STARLINK-32648          
1 62301U 24239A   25162.82952643  .00017955  00000+0  45740-3 0  9996
2 62301  53.1595   7.8114 0000693  58.5031 301.6042 15.39646009 27977
STARLINK-32594          
1 62302U 24239B   25162.83337097  .00009700  00000+0  33912-3 0  9995
2 62302  53.1614   9.8101 0001202  77.5463 282.5673 15.30207143 27942
STARLINK-32621          
1 62303U 24239C   25162.81526544  .00027385  00000+0  69169-3 0  9993
2 62303  53.1588   7.7179 0000602 112.4650 247.6418 15.39639648 27975
STARLINK-32597          
1 62304U 24239D   25162.97290584  .02252402  00000+0  46538-1 0  9998
2 62304  53.1586   7.2820 0014161 350.7357   9.3385 15.41976028 27995
STARLINK-32649          
1 62305U 24239E   25162.79276779  .00019451  00000+0  66665-3 0  9997
2 62305  53.1590  11.8425 0000882  46.5539 313.5535 15.30222569 27911
STARLINK-32633          
1 62306U 24239F   25162.82232316  .00019203  00000+0  65876-3 0  9999
2 62306  53.1593  12.0158 0001048  83.1959 276.9161 15.30202563 27918
STARLINK-32646          
1 62307U 24239G   25162.82455258 -.00005115  00000+0 -11785-3 0  9991
2 62307  53.1606   7.7817 0001368  97.2728 262.8432 15.39648692 27979
STARLINK-32706          
1 62308U 24239H   25162.85186152  .00013213  00000+0  45727-3 0  9998
2 62308  53.1595  12.2066 0000848 104.8399 255.2696 15.30212371 27919
STARLINK-32678          
1 62309U 24239J   25162.82488648  .00025626  00000+0  64825-3 0  9992
2 62309  53.1602   7.7809 0001206  84.7194 275.3949 15.39630830 27974
STARLINK-32696          
1 62310U 24239K   25162.84869905  .00028414  00000+0  96763-3 0  9999
2 62310  53.1604  12.1889 0001153  81.5892 278.5240 15.30205761 27912
STARLINK-32700          
1 62311U 24239L   25162.83848667  .00031295  00000+0  78891-3 0  9994
2 62311  53.1589   7.8678 0001420  23.6457 336.4613 15.39629179 27979
STARLINK-32698          
1 62312U 24239M   25162.85502992  .00017694  00000+0  60799-3 0  9990
2 62312  53.1591  12.2292 0000971  75.2864 284.8244 15.30206672 27910
STARLINK-32634          
1 62313U 24239N   25162.83882845  .00030885  00000+0  77836-3 0  9994
2 62313  53.1592   7.8660 0001212  74.5212 285.5926 15.39643971 27965
STARLINK-32651          
1 62314U 24239P   25162.82020338  .00021388  00000+0  73179-3 0  9999
2 62314  53.1588  12.0039 0000810  87.1538 272.9556 15.30216474 27912
STARLINK-32627          
1 62315U 24239Q   25162.85291131  .00005960  00000+0  21319-3 0  9991
2 62315  53.1606  12.1647 0001166  82.2590 277.8543 15.30202283 27912
STARLINK-32596          
1 62316U 24239R   25162.84552929  .00011838  00000+0  41102-3 0  9999
2 62316  53.1600  12.1654 0000925 106.4341 253.6761 15.30211259 27917
STARLINK-32519          
1 62317U 24239S   25162.79237719  .00013449  00000+0  34569-3 0  9990
2 62317  53.1586   7.5673 0001094  83.4031 276.7098 15.39612550 27971
STARLINK-32576          
1 62318U 24239T   25162.91668981  .00214039  00000+0  35514-2 0  9992
2 62318  53.1584   5.0553 0006033 251.5254 334.7011 15.50853304  5954
STARLINK-32527          
1 62319U 24239U   25162.81062372  .00031129  00000+0  78448-3 0  9995
2 62319  53.1591   7.6878 0000919  71.8178 288.2927 15.39641625 27979
STARLINK-32481          
1 62320U 24239V   25162.82919718  .00024348  00000+0  61651-3 0  9996
2 62320  53.1595   7.8035 0000796 119.8475 240.2609 15.39631695 27979
STARLINK-32645          
1 62321U 24239W   25162.84312867  .00043328  00000+0  10869-2 0  9994
2 62321  53.1584   7.8908 0001004  77.2362 282.8755 15.39623666 27975
STARLINK-32654          
1 62322U 24239X   25162.81598161  .00011734  00000+0  40751-3 0  9995
2 62322  53.1575  11.9752 0000909 102.3427 257.7675 15.30211748 27915
STARLINK-11444 [DTC]    
1 62409U 24249A   25162.61252371  .00184761  00000+0  14050-2 0  9993
2 62409  42.9993   1.9417 0001939 231.4081 128.6614 15.70951337 26896
STARLINK-11493 [DTC]    
1 62410U 24249B   25162.87216110  .00155963  00000+0  11928-2 0  9997
2 62410  43.0017   0.4506 0003871 275.4541  84.5885 15.70903683 26932
STARLINK-11453 [DTC]    
1 62411U 24249C   25162.90389663  .00161447  00000+0  12309-2 0  9994
2 62411  42.9967 359.8154 0001698 254.1258 105.9423 15.70965241 26629
STARLINK-11462 [DTC]    
1 62412U 24249D   25161.95545781  .00250614  00000+0  18928-2 0  9992
2 62412  42.9997   5.6039 0001638 279.0524  81.0158 15.70908919 26478
STARLINK-11441 [DTC]    
1 62413U 24249E   25162.57005207  .00161449  00000+0  12320-2 0  9993
2 62413  42.9979   1.6002 0001941 280.9961  79.0688 15.70944023 26570
STARLINK-11445 [DTC]    
1 62414U 24249F   25162.89858192  .00206384  00000+0  15695-2 0  9994
2 62414  42.9988 359.7671 0003107 273.0791  86.9721 15.70879647 26899
STARLINK-11355 [DTC]    
1 62415U 24249G   25162.91668981 -.00092009  00000+0 -72063-3 0  9995
2 62415  43.0002 359.5169 0001784 277.2380 240.2976 15.70867330 26947
STARLINK-11446 [DTC]    
1 62416U 24249H   25162.75018041  .00194265  00000+0  14807-2 0  9990
2 62416  42.9999   0.3614 0002813 274.8809  85.1738 15.70864440 26873
STARLINK-11428 [DTC]    
1 62417U 24249J   25162.91982600  .00297293  00000+0  22331-2 0  9996
2 62417  42.9996 359.9458 0001781 290.1690  69.8986 15.70897382 26945
STARLINK-11447 [DTC]    
1 62418U 24249K   25162.69190841  .00215644  00000+0  16398-2 0  9996
2 62418  42.9985   0.7868 0003844 292.7278  67.3183 15.70850184 26864
STARLINK-11439 [DTC]    
1 62419U 24249L   25162.57536023  .00169146  00000+0  12948-2 0  9992
2 62419  42.9989   1.6384 0001959 282.5838  77.4810 15.70843832 26351
STARLINK-11434 [DTC]    
1 62420U 24249M   25162.92513166  .00155083  00000+0  11879-2 0  9993
2 62420  43.0006 359.9826 0002286 289.8695  70.1927 15.70874610 26896
STARLINK-11461 [DTC]    
1 62421U 24249N   25162.91450561  .00155807  00000+0  11882-2 0  9990
2 62421  42.9994 359.8970 0004226 266.2185  93.8199 15.70970777 26938
STARLINK-32692          
1 62422U 24249P   25163.06970457  .00026987  00000+0  98574-3 0  9999
2 62422  43.0025  50.3524 0001135 299.2216  60.8522 15.27609754 26335
STARLINK-32680          
1 62423U 24249Q   25163.00294246  .00016083  00000+0  57745-3 0  9990
2 62423  43.0009  42.9444 0001516 269.5941  90.4738 15.28436300 26462
STARLINK-32638          
1 62424U 24249R   25162.42950331  .00019308  00000+0  70932-3 0  9996
2 62424  43.0049  57.6347 0000950 285.2942  74.7805 15.27579714 25925
STARLINK-32283          
1 62425U 24249S   25162.71356630  .00036408  00000+0  87415-3 0  9995
2 62425  43.0002  43.3444 0001569 294.6133  65.4560 15.40718058 26385
STARLINK-32676          
1 62426U 24249T   25163.02699211  .00020682  00000+0  75850-3 0  9993
2 62426  43.0013  43.1244 0001414 265.9571  94.1119 15.27601033 26467
STARLINK-32659          
1 62427U 24249U   25162.03206471  .00021226  00000+0  77876-3 0  9991
2 62427  43.0003  48.5609 0001600 266.4640  93.6029 15.27574081 26322
STARLINK-32614          
1 62428U 24249V   25162.73892750  .00017834  00000+0  65590-3 0  9990
2 62428  43.0010  52.1829 0000915 264.6550  95.4197 15.27586593 26286
STARLINK-32418          
1 62429U 24249W   25162.72432724  .00015262  00000+0  56287-3 0  9997
2 62429  43.0012  44.2878 0001151 256.7241 103.3483 15.27586980 26374
STARLINK-32702          
1 62432U 24251A   25161.37659609  .00029139  00000+0  73542-3 0  9998
2 62432  53.1578 160.3454 0001227  80.3858 279.7286 15.39630064 26258
STARLINK-32712          
1 62433U 24251B   25162.41769744  .00022373  00000+0  76500-3 0  9997
2 62433  53.1579 155.4647 0001635  88.5615 271.5573 15.30209893 26413
STARLINK-32674          
1 62434U 24251C   25162.36890735  .00212919  00000+0  51904-2 0  9994
2 62434  53.1581 155.8733 0001969  79.3941 280.7285 15.39592139 26405
STARLINK-32711          
1 62435U 24251D   25163.25002315  .00004833  00000+0  17511-3 0  9994
2 62435  53.1586 151.5683 0001298  65.6753 219.3884 15.30213742 26530
STARLINK-32697          
1 62436U 24251E   25162.68384270  .00025028  00000+0  63336-3 0  9999
2 62436  53.1574 154.2823 0000802  84.1512 275.9584 15.39632345 26452
STARLINK-32693          
1 62437U 24251F   25163.25002315 -.00000209  00000+0  50849-5 0  9993
2 62437  53.1597 148.7754 0001170  82.6968 142.0869 15.30187030 26576
STARLINK-32721          
1 62438U 24251G   25162.91668981  .00052944  00000+0  17882-2 0  9992
2 62438  53.1603 152.8934 0001143  83.3231 275.0833 15.30178113  5906
STARLINK-32709          
1 62439U 24251H   25163.25002315 -.00003200  00000+0 -96005-4 0  9993
2 62439  53.1601 151.7862 0000975  78.5329  96.0986 15.30191336 26522
